[{"OBJECT_NAME":"STARLINK-1569","OBJECT_ID":"2020-055N","EPOCH":"2026-03-10T00:00:02.999808","MEAN_MOTION":15.18469415,"ECCENTRICITY":0.00021467,"INCLINATION":53.1037,"RA_OF_ASC_NODE":124.869,"ARG_OF_PERICENTER":70.9863,"MEAN_ANOMALY":37.8804,"EPHEMERIS_TYPE":0,"CLASSIFICATION_TYPE":"U","NORAD_CAT_ID":46039,"ELEMENT_SET_NO":999,"REV_AT_EPOCH":579,"BSTAR":0.0056656927,"MEAN_MOTION_DOT":0.00119854,"MEAN_MOTION_DDOT":0},{"OBJECT_NAME":"FOSSASAT-2E21","OBJECT_ID":"2025-135J","EPOCH":"2026-03-09T20:26:11.535360","MEAN_MOTION":15.19342194,"ECCENTRICITY":0.00047332,"INCLINATION":97.4527,"RA_OF_ASC_NODE":184.3473,"ARG_OF_PERICENTER":156.4187,"MEAN_ANOMALY":203.7265,"EPHEMERIS_TYPE":0,"CLASSIFICATION_TYPE":"U","NORAD_CAT_ID":64536,"ELEMENT_SET_NO":999,"REV_AT_EPOCH":3973,"BSTAR":0.00023900461,"MEAN_MOTION_DOT":4.984e-5,"MEAN_MOTION_DDOT":0}]
